<?xml version="1.0" encoding="UTF-8"?>
<ndm xmlns:xsi="http://www.w3.org/2001/XMLSchema-instance" xsi:noNamespaceSchemaLocation="https://sanaregistry.org/r/ndmxml_unqualified/ndmxml-2.0.0-master-2.0.xsd">
<omm id="CCSDS_OMM_VERS" version="2.0">
<header><CREATION_DATE/><ORIGINATOR/></header><body><segment><metadata><OBJECT_NAME>KUIPER-00188</OBJECT_NAME><OBJECT_ID>2025-301K</OBJECT_ID><CENTER_NAME>EARTH</CENTER_NAME><REF_FRAME>TEME</REF_FRAME><TIME_SYSTEM>UTC</TIME_SYSTEM><MEAN_ELEMENT_THEORY>SGP4</MEAN_ELEMENT_THEORY></metadata><data><meanElements><EPOCH>2025-12-28T03:14:41.408736</EPOCH><MEAN_MOTION>15.35039270</MEAN_MOTION><ECCENTRICITY>.0007499</ECCENTRICITY><INCLINATION>51.8702</INCLINATION><RA_OF_ASC_NODE>50.9367</RA_OF_ASC_NODE><ARG_OF_PERICENTER>140.8850</ARG_OF_PERICENTER><MEAN_ANOMALY>219.2679</MEAN_ANOMALY></meanElements><tleParameters><EPHEMERIS_TYPE>0</EPHEMERIS_TYPE><CLASSIFICATION_TYPE>U</CLASSIFICATION_TYPE><NORAD_CAT_ID>67142</NORAD_CAT_ID><ELEMENT_SET_NO>999</ELEMENT_SET_NO><REV_AT_EPOCH>273</REV_AT_EPOCH><BSTAR>.10797E-2</BSTAR><MEAN_MOTION_DOT>.37097E-3</MEAN_MOTION_DOT><MEAN_MOTION_DDOT>0</MEAN_MOTION_DDOT></tleParameters></data></segment></body></omm>
<omm id="CCSDS_OMM_VERS" version="2.0">
<header><CREATION_DATE/><ORIGINATOR/></header><body><segment><metadata><OBJECT_NAME>KUIPER-00191</OBJECT_NAME><OBJECT_ID>2025-301L</OBJECT_ID><CENTER_NAME>EARTH</CENTER_NAME><REF_FRAME>TEME</REF_FRAME><TIME_SYSTEM>UTC</TIME_SYSTEM><MEAN_ELEMENT_THEORY>SGP4</MEAN_ELEMENT_THEORY></metadata><data><meanElements><EPOCH>2025-12-28T03:12:05.810112</EPOCH><MEAN_MOTION>15.35268830</MEAN_MOTION><ECCENTRICITY>.000679</ECCENTRICITY><INCLINATION>51.8681</INCLINATION><RA_OF_ASC_NODE>50.9259</RA_OF_ASC_NODE><ARG_OF_PERICENTER>137.2150</ARG_OF_PERICENTER><MEAN_ANOMALY>222.9366</MEAN_ANOMALY></meanElements><tleParameters><EPHEMERIS_TYPE>0</EPHEMERIS_TYPE><CLASSIFICATION_TYPE>U</CLASSIFICATION_TYPE><NORAD_CAT_ID>67143</NORAD_CAT_ID><ELEMENT_SET_NO>999</ELEMENT_SET_NO><REV_AT_EPOCH>276</REV_AT_EPOCH><BSTAR>.10021E-2</BSTAR><MEAN_MOTION_DOT>.34641E-3</MEAN_MOTION_DOT><MEAN_MOTION_DDOT>0</MEAN_MOTION_DDOT></tleParameters></data></segment></body></omm>
<omm id="CCSDS_OMM_VERS" version="2.0">
<header><CREATION_DATE/><ORIGINATOR/></header><body><segment><metadata><OBJECT_NAME>KUIPER-00196</OBJECT_NAME><OBJECT_ID>2025-301M</OBJECT_ID><CENTER_NAME>EARTH</CENTER_NAME><REF_FRAME>TEME</REF_FRAME><TIME_SYSTEM>UTC</TIME_SYSTEM><MEAN_ELEMENT_THEORY>SGP4</MEAN_ELEMENT_THEORY></metadata><data><meanElements><EPOCH>2025-12-28T03:02:17.062368</EPOCH><MEAN_MOTION>15.36040756</MEAN_MOTION><ECCENTRICITY>.0003819</ECCENTRICITY><INCLINATION>51.8737</INCLINATION><RA_OF_ASC_NODE>50.8784</RA_OF_ASC_NODE><ARG_OF_PERICENTER>101.3520</ARG_OF_PERICENTER><MEAN_ANOMALY>258.7895</MEAN_ANOMALY></meanElements><tleParameters><EPHEMERIS_TYPE>0</EPHEMERIS_TYPE><CLASSIFICATION_TYPE>U</CLASSIFICATION_TYPE><NORAD_CAT_ID>67144</NORAD_CAT_ID><ELEMENT_SET_NO>999</ELEMENT_SET_NO><REV_AT_EPOCH>273</REV_AT_EPOCH><BSTAR>.55318E-3</BSTAR><MEAN_MOTION_DOT>.19383E-3</MEAN_MOTION_DOT><MEAN_MOTION_DDOT>0</MEAN_MOTION_DDOT></tleParameters></data></segment></body></omm>
<omm id="CCSDS_OMM_VERS" version="2.0">
<header><CREATION_DATE/><ORIGINATOR/></header><body><segment><metadata><OBJECT_NAME>KUIPER-00204</OBJECT_NAME><OBJECT_ID>2025-301N</OBJECT_ID><CENTER_NAME>EARTH</CENTER_NAME><REF_FRAME>TEME</REF_FRAME><TIME_SYSTEM>UTC</TIME_SYSTEM><MEAN_ELEMENT_THEORY>SGP4</MEAN_ELEMENT_THEORY></metadata><data><meanElements><EPOCH>2025-12-28T04:30:12.134880</EPOCH><MEAN_MOTION>15.36632025</MEAN_MOTION><ECCENTRICITY>.0002038</ECCENTRICITY><INCLINATION>51.8745</INCLINATION><RA_OF_ASC_NODE>50.5322</RA_OF_ASC_NODE><ARG_OF_PERICENTER>81.4491</ARG_OF_PERICENTER><MEAN_ANOMALY>278.6726</MEAN_ANOMALY></meanElements><tleParameters><EPHEMERIS_TYPE>0</EPHEMERIS_TYPE><CLASSIFICATION_TYPE>U</CLASSIFICATION_TYPE><NORAD_CAT_ID>67145</NORAD_CAT_ID><ELEMENT_SET_NO>999</ELEMENT_SET_NO><REV_AT_EPOCH>285</REV_AT_EPOCH><BSTAR>.10784E-2</BSTAR><MEAN_MOTION_DOT>.38987E-3</MEAN_MOTION_DOT><MEAN_MOTION_DDOT>0</MEAN_MOTION_DDOT></tleParameters></data></segment></body></omm>
<omm id="CCSDS_OMM_VERS" version="2.0">
<header><CREATION_DATE/><ORIGINATOR/></header><body><segment><metadata><OBJECT_NAME>KUIPER-00210</OBJECT_NAME><OBJECT_ID>2025-301P</OBJECT_ID><CENTER_NAME>EARTH</CENTER_NAME><REF_FRAME>TEME</REF_FRAME><TIME_SYSTEM>UTC</TIME_SYSTEM><MEAN_ELEMENT_THEORY>SGP4</MEAN_ELEMENT_THEORY></metadata><data><meanElements><EPOCH>2025-12-28T03:23:17.793024</EPOCH><MEAN_MOTION>15.34270382</MEAN_MOTION><ECCENTRICITY>.0010508</ECCENTRICITY><INCLINATION>51.8612</INCLINATION><RA_OF_ASC_NODE>50.9727</RA_OF_ASC_NODE><ARG_OF_PERICENTER>155.9579</ARG_OF_PERICENTER><MEAN_ANOMALY>204.1898</MEAN_ANOMALY></meanElements><tleParameters><EPHEMERIS_TYPE>0</EPHEMERIS_TYPE><CLASSIFICATION_TYPE>U</CLASSIFICATION_TYPE><NORAD_CAT_ID>67146</NORAD_CAT_ID><ELEMENT_SET_NO>999</ELEMENT_SET_NO><REV_AT_EPOCH>290</REV_AT_EPOCH><BSTAR>.73066E-3</BSTAR><MEAN_MOTION_DOT>.24348E-3</MEAN_MOTION_DOT><MEAN_MOTION_DDOT>0</MEAN_MOTION_DDOT></tleParameters></data></segment></body></omm>
<omm id="CCSDS_OMM_VERS" version="2.0">
<header><CREATION_DATE/><ORIGINATOR/></header><body><segment><metadata><OBJECT_NAME>KUIPER-00221</OBJECT_NAME><OBJECT_ID>2025-301Q</OBJECT_ID><CENTER_NAME>EARTH</CENTER_NAME><REF_FRAME>TEME</REF_FRAME><TIME_SYSTEM>UTC</TIME_SYSTEM><MEAN_ELEMENT_THEORY>SGP4</MEAN_ELEMENT_THEORY></metadata><data><meanElements><EPOCH>2025-12-28T03:05:45.225888</EPOCH><MEAN_MOTION>15.35816582</MEAN_MOTION><ECCENTRICITY>.0004992</ECCENTRICITY><INCLINATION>51.8725</INCLINATION><RA_OF_ASC_NODE>50.8958</RA_OF_ASC_NODE><ARG_OF_PERICENTER>124.9849</ARG_OF_PERICENTER><MEAN_ANOMALY>235.1606</MEAN_ANOMALY></meanElements><tleParameters><EPHEMERIS_TYPE>0</EPHEMERIS_TYPE><CLASSIFICATION_TYPE>U</CLASSIFICATION_TYPE><NORAD_CAT_ID>67147</NORAD_CAT_ID><ELEMENT_SET_NO>999</ELEMENT_SET_NO><REV_AT_EPOCH>273</REV_AT_EPOCH><BSTAR>.12157E-2</BSTAR><MEAN_MOTION_DOT>.42891E-3</MEAN_MOTION_DOT><MEAN_MOTION_DDOT>0</MEAN_MOTION_DDOT></tleParameters></data></segment></body></omm>
<omm id="CCSDS_OMM_VERS" version="2.0">
<header><CREATION_DATE/><ORIGINATOR/></header><body><segment><metadata><OBJECT_NAME>KUIPER-00232</OBJECT_NAME><OBJECT_ID>2025-301R</OBJECT_ID><CENTER_NAME>EARTH</CENTER_NAME><REF_FRAME>TEME</REF_FRAME><TIME_SYSTEM>UTC</TIME_SYSTEM><MEAN_ELEMENT_THEORY>SGP4</MEAN_ELEMENT_THEORY></metadata><data><meanElements><EPOCH>2025-12-28T04:28:17.019840</EPOCH><MEAN_MOTION>15.36788999</MEAN_MOTION><ECCENTRICITY>.000171</ECCENTRICITY><INCLINATION>51.8744</INCLINATION><RA_OF_ASC_NODE>50.5277</RA_OF_ASC_NODE><ARG_OF_PERICENTER>37.0789</ARG_OF_PERICENTER><MEAN_ANOMALY>323.0316</MEAN_ANOMALY></meanElements><tleParameters><EPHEMERIS_TYPE>0</EPHEMERIS_TYPE><CLASSIFICATION_TYPE>U</CLASSIFICATION_TYPE><NORAD_CAT_ID>67148</NORAD_CAT_ID><ELEMENT_SET_NO>999</ELEMENT_SET_NO><REV_AT_EPOCH>274</REV_AT_EPOCH><BSTAR>.9099E-3</BSTAR><MEAN_MOTION_DOT>.32977E-3</MEAN_MOTION_DOT><MEAN_MOTION_DDOT>0</MEAN_MOTION_DDOT></tleParameters></data></segment></body></omm>
<omm id="CCSDS_OMM_VERS" version="2.0">
<header><CREATION_DATE/><ORIGINATOR/></header><body><segment><metadata><OBJECT_NAME>KUIPER-00241</OBJECT_NAME><OBJECT_ID>2025-301S</OBJECT_ID><CENTER_NAME>EARTH</CENTER_NAME><REF_FRAME>TEME</REF_FRAME><TIME_SYSTEM>UTC</TIME_SYSTEM><MEAN_ELEMENT_THEORY>SGP4</MEAN_ELEMENT_THEORY></metadata><data><meanElements><EPOCH>2025-12-28T02:59:52.596384</EPOCH><MEAN_MOTION>15.36334573</MEAN_MOTION><ECCENTRICITY>.000305</ECCENTRICITY><INCLINATION>51.8747</INCLINATION><RA_OF_ASC_NODE>50.8637</RA_OF_ASC_NODE><ARG_OF_PERICENTER>101.1441</ARG_OF_PERICENTER><MEAN_ANOMALY>258.9888</MEAN_ANOMALY></meanElements><tleParameters><EPHEMERIS_TYPE>0</EPHEMERIS_TYPE><CLASSIFICATION_TYPE>U</CLASSIFICATION_TYPE><NORAD_CAT_ID>67149</NORAD_CAT_ID><ELEMENT_SET_NO>999</ELEMENT_SET_NO><REV_AT_EPOCH>306</REV_AT_EPOCH><BSTAR>.92552E-3</BSTAR><MEAN_MOTION_DOT>.33061E-3</MEAN_MOTION_DOT><MEAN_MOTION_DDOT>0</MEAN_MOTION_DDOT></tleParameters></data></segment></body></omm>
<omm id="CCSDS_OMM_VERS" version="2.0">
<header><CREATION_DATE/><ORIGINATOR/></header><body><segment><metadata><OBJECT_NAME>KUIPER-00245</OBJECT_NAME><OBJECT_ID>2025-301T</OBJECT_ID><CENTER_NAME>EARTH</CENTER_NAME><REF_FRAME>TEME</REF_FRAME><TIME_SYSTEM>UTC</TIME_SYSTEM><MEAN_ELEMENT_THEORY>SGP4</MEAN_ELEMENT_THEORY></metadata><data><meanElements><EPOCH>2025-12-27T22:25:38.861184</EPOCH><MEAN_MOTION>15.35728223</MEAN_MOTION><ECCENTRICITY>.0005087</ECCENTRICITY><INCLINATION>51.8733</INCLINATION><RA_OF_ASC_NODE>51.8409</RA_OF_ASC_NODE><ARG_OF_PERICENTER>124.9011</ARG_OF_PERICENTER><MEAN_ANOMALY>235.2453</MEAN_ANOMALY></meanElements><tleParameters><EPHEMERIS_TYPE>0</EPHEMERIS_TYPE><CLASSIFICATION_TYPE>U</CLASSIFICATION_TYPE><NORAD_CAT_ID>67150</NORAD_CAT_ID><ELEMENT_SET_NO>999</ELEMENT_SET_NO><REV_AT_EPOCH>270</REV_AT_EPOCH><BSTAR>.10231E-2</BSTAR><MEAN_MOTION_DOT>.35898E-3</MEAN_MOTION_DOT><MEAN_MOTION_DDOT>0</MEAN_MOTION_DDOT></tleParameters></data></segment></body></omm>

</ndm>
